SL-16 R/B
1 22826U 93036B   25179.12345678  .00001234  00000+0  12345-4 0  9991
2 22826  70.1234 120.5678 0012345  45.6789 314.3210 14.12345678901234
